NORAD_CAT_ID,OBJECT_NAME,OBJECT_TYPE,EPOCH,MEAN_MOTION,ECCENTRICITY,INCLINATION,RA_OF_ASC_NODE,ARG_OF_PERICENTER,MEAN_ANOMALY,BSTAR,MEAN_MOTION_DOT,MEAN_MOTION_DDOT,TLE_LINE0,TLE_LINE1,TLE_LINE2,SEMIMAJOR_AXIS,PERIOD,APOGEE,PERIGEE,DECAYED
52832.0,STARLINK-4083,PAYLOAD,2024-03-31 22:20:19,15.08846954,0.0001373,53.2187,331.3749,90.3637,269.7512,0.00022374,3.275e-05,0.0,0 STARLINK-4083,1 52832U 22062C   24091.93078452  .00003275  00000-0  22374-3 0  9994,2 52832  53.2187 331.3749 0001373  90.3637 269.7512 15.08846954 98931,6917.859,95.437,540.674,538.774,0.0
52832.0,STARLINK-4083,PAYLOAD,2024-04-01 09:28:00,15.08857837,0.0001411,53.2178,329.2922,86.1519,273.9634,0.00018687,2.689e-05,0.0,0 STARLINK-4083,1 52832U 22062C   24092.39445491  .00002689  00000-0  18687-3 0  9996,2 52832  53.2178 329.2922 0001411  86.1519 273.9634 15.08857837 99491,6917.826,95.436,540.667,538.715,0.0
52832.0,STARLINK-4083,PAYLOAD,2024-04-01 19:00:20,15.08829676,0.0001318,53.2181,327.5067,99.3103,260.8039,-6.0147e-05,-1.245e-05,0.0,0 STARLINK-4083,1 52832U 22062C   24092.79190899 -.00001245  00000-0 -60147-4 0  9997,2 52832  53.2181 327.5067 0001318  99.3103 260.8039 15.08829676 99558,6917.912,95.438,540.689,538.865,0.0
52832.0,STARLINK-4083,PAYLOAD,2024-04-02 01:21:53,15.08836217,0.0001412,53.2183,326.317,103.7156,256.3993,-0.0001041,-1.944e-05,0.0,0 STARLINK-4083,1 52832U 22062C   24093.05686502 -.00001944  00000-0 -10410-3 0  9991,2 52832  53.2183 326.3170 0001412 103.7156 256.3993 15.08836217 99597,6917.892,95.438,540.734,538.78,0.0
52832.0,STARLINK-4083,PAYLOAD,2024-04-02 22:01:54,15.08839502,0.0001346,53.2178,322.4528,93.1043,267.0104,0.00014095,1.956e-05,0.0,0 STARLINK-4083,1 52832U 22062C   24093.91798735  .00001956  00000-0  14095-3 0  9992,2 52832  53.2178 322.4528 0001346  93.1043 267.0104 15.08839502 99232,6917.882,95.438,540.678,538.816,0.0
52832.0,STARLINK-4083,PAYLOAD,2024-04-03 07:34:12,15.08843634,0.0001329,53.218,320.6691,92.5861,267.5283,0.00021295,3.103e-05,0.0,0 STARLINK-4083,1 52832U 22062C   24094.31542681  .00003103  00000-0  21295-3 0  9990,2 52832  53.2180 320.6691 0001329  92.5861 267.5283 15.08843634 99782,6917.869,95.437,540.654,538.815,0.0
52832.0,STARLINK-4083,PAYLOAD,2024-04-03 21:52:41,15.08840833,0.0001441,53.218,317.9936,95.9385,264.1771,0.00025477,3.769e-05,0.0,0 STARLINK-4083,1 52832U 22062C   24094.91159077  .00003769  00000-0  25477-3 0  9993,2 52832  53.2180 317.9936 0001441  95.9385 264.1771 15.08840833 99879,6917.878,95.438,540.74,538.746,0.0
52832.0,STARLINK-4083,PAYLOAD,2024-04-04 07:25:00,15.08845261,0.0001483,53.2187,316.2102,96.904,263.2121,0.00022798,3.343e-05,0.0,0 STARLINK-4083,1 52832U 22062C   24095.30902829  .00003343  00000-0  22798-3 0  9999,2 52832  53.2187 316.2102 0001483  96.9040 263.2121 15.08845261 99440,6917.864,95.437,540.755,538.703,0.0
52832.0,STARLINK-4083,PAYLOAD,2024-04-04 21:43:28,15.0883961,0.0001511,53.2186,313.5349,105.7061,254.4097,8.084e-05,9.99e-06,0.0,0 STARLINK-4083,1 52832U 22062C   24095.90519071  .00000999  00000-0  80840-4 0  9995,2 52832  53.2186 313.5349 0001511 105.7061 254.4097 15.08839610 99531,6917.882,95.438,540.792,538.701,0.0
52832.0,STARLINK-4083,PAYLOAD,2024-04-05 13:37:19,15.08844522,0.0001478,53.2183,310.5611,98.3993,261.7167,0.00013622,1.881e-05,0.0,0 STARLINK-4083,1 52832U 22062C   24096.56758723  .00001881  00000-0  13622-3 0  9991,2 52832  53.2183 310.5611 0001478  98.3993 261.7167 15.08844522 99638,6917.867,95.437,540.754,538.709,0.0
52832.0,STARLINK-4083,PAYLOAD,2024-04-05 19:58:52,15.08836495,0.0001502,53.2183,309.371,95.0583,265.0581,3.5843e-06,-2.31e-06,0.0,0 STARLINK-4083,1 52832U 22062C   24096.83255195 -.00000231  00000-0  35843-5 0  9996,2 52832  53.2183 309.3710 0001502  95.0583 265.0581 15.08836495 99672,6917.891,95.438,540.795,538.717,0.0
52832.0,STARLINK-4083,PAYLOAD,2024-04-07 13:18:53,15.08843372,0.0001587,53.2175,301.6396,82.8833,277.2339,0.00012173,1.65e-05,0.0,0 STARLINK-4083,1 52832U 22062C   24098.55478996  .00001650  00000-0  12173-3 0  9997,2 52832  53.2175 301.6396 0001587  82.8833 277.2339 15.08843372 99930,6917.87,95.437,540.833,538.637,0.0
52832.0,STARLINK-4083,PAYLOAD,2024-04-07 19:40:26,15.0884023,0.0001848,53.2192,300.4498,83.1986,276.9217,0.00011581,1.555e-05,0.0,0 STARLINK-4083,1 52832U 22062C   24098.81975319  .00001555  00000-0  11581-3 0  9993,2 52832  53.2192 300.4498 0001848  83.1986 276.9217 15.08840230100464,6917.88,95.438,541.023,538.466,0.0
52832.0,STARLINK-4083,PAYLOAD,2024-04-08 13:09:41,15.0884003,0.0001649,53.2149,297.1753,90.4969,269.6212,7.5557e-05,9.15e-06,0.0,0 STARLINK-4083,1 52832U 22062C   24099.54839386  .00000915  00000-0  75557-4 0  9990,2 52832  53.2149 297.1753 0001649  90.4969 269.6212 15.08840030100083,6917.88,95.438,540.886,538.605,0.0
52832.0,STARLINK-4083,PAYLOAD,2024-04-08 22:41:59,15.08863062,0.0001466,53.2163,295.3919,83.8238,276.2921,-0.00021305,-3.679e-05,0.0,0 STARLINK-4083,1 52832U 22062C   24099.94582794 -.00003679  00000-0 -21305-3 0  9995,2 52832  53.2163 295.3919 0001466  83.8238 276.2921 15.08863062100143,6917.81,95.436,540.689,538.661,0.0
52832.0,STARLINK-4083,PAYLOAD,2024-04-09 06:38:54,15.08863456,0.0001482,53.217,293.9056,82.4739,277.6422,-0.00017155,-3.019e-05,0.0,0 STARLINK-4083,1 52832U 22062C   24100.27702239 -.00003019  00000-0 -17155-3 0  9998,2 52832  53.2170 293.9056 0001482  82.4739 277.6422 15.08863456100199,6917.809,95.436,540.699,538.648,0.0
52832.0,STARLINK-4083,PAYLOAD,2024-04-10 19:12:47,15.08840269,0.0001495,53.219,287.0663,89.2173,270.8991,6.5302e-05,7.51e-06,0.0,0 STARLINK-4083,1 52832U 22062C   24101.80055476  .00000751  00000-0  65302-4 0  9998,2 52832  53.2190 287.0663 0001495  89.2173 270.8991 15.08840269100913,6917.88,95.438,540.779,538.71,0.0
52832.0,STARLINK-4083,PAYLOAD,2024-04-11 11:06:39,15.08839526,0.000124,53.2176,284.0933,88.669,271.4444,4.1948e-05,3.8e-06,0.0,0 STARLINK-4083,1 52832U 22062C   24102.46295524  .00000380  00000-0  41948-4 0  9999,2 52832  53.2176 284.0933 0001240  88.6690 271.4444 15.08839526100520,6917.882,95.438,540.605,538.889,0.0
52832.0,STARLINK-4083,PAYLOAD,2024-04-11 19:03:35,15.08833249,0.0001186,53.2172,282.6049,83.0357,277.077,3.5889e-05,2.83e-06,0.0,0 STARLINK-4083,1 52832U 22062C   24102.79416098  .00000283  00000-0  35889-4 0  9995,2 52832  53.2172 282.6049 0001186  83.0357 277.0770 15.08833249101066,6917.901,95.438,540.586,538.946,0.0
52832.0,STARLINK-4083,PAYLOAD,2024-04-12 22:05:08,15.08837948,0.0001179,53.2165,277.5479,74.9495,285.1628,0.00010235,1.341e-05,0.0,0 STARLINK-4083,1 52832U 22062C   24103.92023953  .00001341  00000-0  10235-3 0  9998,2 52832  53.2165 277.5479 0001179  74.9495 285.1628 15.08837948100748,6917.887,95.438,540.567,538.936,0.0
52832.0,STARLINK-4083,PAYLOAD,2024-04-13 18:45:09,15.08838601,0.0001232,53.2169,273.6816,71.2211,288.8914,9.5199e-05,1.227e-05,0.0,0 STARLINK-4083,1 52832U 22062C   24104.78136233  .00001227  00000-0  95199-4 0  9995,2 52832  53.2169 273.6816 0001232  71.2211 288.8914 15.08838601100879,6917.885,95.438,540.602,538.897,0.0
52832.0,STARLINK-4083,PAYLOAD,2024-04-14 10:39:00,15.08840142,0.0001138,53.217,270.7099,82.7394,277.3727,0.00011734,1.58e-05,0.0,0 STARLINK-4083,1 52832U 22062C   24105.44376076  .00001580  00000-0  11734-3 0  9994,2 52832  53.2170 270.7099 0001138  82.7394 277.3727 15.08840142101460,6917.88,95.438,540.532,538.958,0.0
52832.0,STARLINK-4083,PAYLOAD,2024-04-14 18:35:56,15.08848534,0.0001455,53.2182,269.2231,73.4522,286.663,0.0001123,1.5e-05,0.0,0 STARLINK-4083,1 52832U 22062C   24105.77495850  .00001500  00000-0  11230-3 0  9995,2 52832  53.2182 269.2231 0001455  73.4522 286.6630 15.08848534101027,6917.854,95.437,540.726,538.713,0.0
52832.0,STARLINK-4083,PAYLOAD,2024-04-15 10:29:48,15.08836185,0.0001221,53.2175,266.2493,90.332,269.7812,6.5119e-05,7.49e-06,0.0,0 STARLINK-4083,1 52832U 22062C   24106.43736804  .00000749  00000-0  65119-4 0  9996,2 52832  53.2175 266.2493 0001221  90.3320 269.7812 15.08836185101619,6917.892,95.438,540.602,538.912,0.0
52832.0,STARLINK-4083,PAYLOAD,2024-04-15 16:51:21,15.08830321,0.0001255,53.2167,265.0607,90.274,269.8396,-5.8143e-06,-3.8e-06,0.0,0 STARLINK-4083,1 52832U 22062C   24106.70233247 -.00000380  00000-0 -58143-5 0  9992,2 52832  53.2167 265.0607 0001255  90.2740 269.8396 15.08830321101654,6917.91,95.438,540.643,538.907,0.0
52832.0,STARLINK-4083,PAYLOAD,2024-04-16 13:31:21,15.08848676,7.19e-05,53.2185,261.1966,63.3789,296.7276,0.00032972,4.965e-05,0.0,0 STARLINK-4083,1 52832U 22062C   24107.56344607  .00004965  00000-0  32972-3 0  9991,2 52832  53.2185 261.1966 0000719  63.3789 296.7276 15.08848676101789,6917.854,95.437,540.216,539.221,0.0
52832.0,STARLINK-4083,PAYLOAD,2024-04-16 16:42:07,15.08866889,0.000139,53.2179,260.5973,106.9125,253.2019,0.00050188,7.714e-05,0.0,0 STARLINK-4083,1 52832U 22062C   24107.69591621  .00007714  00000-0  50188-3 0  9999,2 52832  53.2179 260.5973 0001390 106.9125 253.2019 15.08866889101809,6917.798,95.436,540.625,538.702,0.0
52832.0,STARLINK-4083,PAYLOAD,2024-04-17 13:22:08,15.08834574,0.0001659,53.2158,256.7349,68.624,291.4929,-0.00060221,-9.858e-05,0.0,0 STARLINK-4083,1 52832U 22062C   24108.55704118 -.00009858  00000-0 -60221-3 0  9994,2 52832  53.2158 256.7349 0001659  68.6240 291.4929 15.08834574101934,6917.897,95.438,540.91,538.614,0.0
52832.0,STARLINK-4083,PAYLOAD,2024-04-17 14:57:31,15.0883744,0.0001785,53.2162,256.4373,70.0942,290.0242,-0.00051945,-8.545e-05,0.0,0 STARLINK-4083,1 52832U 22062C   24108.62328064 -.00008545  00000-0 -51945-3 0  9999,2 52832  53.2162 256.4373 0001785  70.0942 290.0242 15.08837440101454,6917.888,95.438,540.988,538.518,0.0
52832.0,STARLINK-4083,PAYLOAD,2024-04-17 16:32:54,15.08839961,0.0001881,53.2158,256.1378,92.2364,267.8843,-0.00048769,-8.041e-05,0.0,0 STARLINK-4083,1 52832U 22062C   24108.68951873 -.00008041  00000-0 -48769-3 0  9996,2 52832  53.2158 256.1378 0001881  92.2364 267.8843 15.08839961101956,6917.881,95.438,541.047,538.444,0.0
